COSMOS 1933             
1 18958U 88020A   22141.57524128  .00002200  00000+0  15491-3 0  9999
2 18958  82.5285 166.3724 0009565 276.7545  83.2593 15.04555242840761
SL-3 R/B                
1 19046U 88032B   22141.57142317  .00002752  00000+0  20266-3 0  9995
2 19046  97.3915 141.7133 0035707 333.5144  26.4256 15.03648741842571
SL-16 R/B               
1 19120U 88039B   22141.38773842 -.00000084  00000+0 -17155-4 0  9999
2 19120  71.0130 123.1573 0023832 305.7465  54.1443 14.19245907761385
COSMOS 1953             
1 19210U 88050A   22141.32166372  .00005774  00000+0  38126-3 0  9999
2 19210  82.5153  87.1807 0010851 237.1305 122.8879 15.07210781827473
SL-8 R/B                
1 19257U 88053B   22141.46998324  .00000290  00000+0  10512-3 0  9995
2 19257  74.0464 148.2176 0021451 310.6861 160.0752 14.37598361777029
COSMOS 1975             
1 19573U 88093A   22141.47705091  .00005047  00000+0  34278-3 0  9998
2 19573  82.5221  42.8400 0012460 288.2900  71.6971 15.06130481809228
SL-14 R/B               
1 19574U 88093B   22141.44637789  .00000601  00000+0  70064-4 0  9999
2 19574  82.5323 262.6168 0020290 306.1148 124.5847 14.83491123795084
SL-16 R/B               
1 19650U 88102B   22141.54531541  .00000101  00000+0  75466-4 0  9991
2 19650  70.9988 191.4248 0015702 317.2990  42.6912 14.15826247730395
INTERCOSMOS 24          
1 20261U 89080A   22141.44646768  .00000593  00000+0  17891-3 0  9996
2 20261  82.6003 285.2312 1200738 265.5005  80.8293 12.56348820492261
SL-14 R/B               
1 20262U 89080C   22141.59229325  .00000575  00000+0  16479-3 0  9990
2 20262  82.5934 343.5102 1237301 113.8162 259.7464 12.49063451486765
DELTA 2 R/B(1)          
1 20303U 89085B   22141.38158999  .00020369  00000+0  52865-3 0  9998
2 20303  35.6384 260.0034 0081036 328.1947  31.3905 15.34746990776296
DELTA 1 R/B             
1 20323U 89089B   22141.55423257  .00000469  00000+0  12999-3 0  9998
2 20323  97.0822 187.5745 0071762 177.9363 182.2144 14.48510288694648
ARIANE 40 R/B           
1 20443U 90005H   22141.42520837  .00000403  00000+0  14704-3 0  9993
2 20443  98.4844 209.5204 0011168  51.5959 308.6229 14.38222642693153
DELTA 2 R/B(1)          
1 20453U 90008B   22141.48757080  .00015956  00000+0  83644-3 0  9993
2 20453  35.6237  63.2696 0265721  64.1597 298.6270 14.89464525715880
COSMOS 2058             
1 20465U 90010A   22141.57279812  .00003195  00000+0  26226-3 0  9996
2 20465  82.4871 316.4980 0015010 355.8458   4.2638 14.98825556733600
SL-14 R/B               
1 20466U 90010B   22141.47328808  .00000526  00000+0  63902-4 0  9994
2 20466  82.5007 128.8138 0020301 183.4387 176.6691 14.81533019743873
SL-14 R/B               
1 20511U 90018B   22141.57687520  .00000601  00000+0  76012-4 0  9993
2 20511  82.5237  78.2389 0016757 336.8896 196.1176 14.80187601717118
HST                     
1 20580U 90037B   22141.28783368  .00004380  00000+0  24853-3 0  9998
2 20580  28.4712 348.7951 0002853 100.0255  64.2395 15.10474764562101
SL-16 R/B               
1 20625U 90046B   22141.56459567  .00000376  00000+0  21976-3 0  9994
2 20625  70.9991 332.3653 0016237 255.4649 104.4672 14.14692572652054
COSMOS 2084             
1 20663U 90055A   22141.24622427  .00002806  00000+0  25516-3 0  9992
2 20663  62.7938 340.6969 0114732  47.1305 313.9354 14.92806111728232
SL-6 R/B(2)             
1 20666U 90055D   22141.57965663  .00002683  00000+0  23528-3 0  9997
2 20666  62.7850 254.1736 0128484  69.8127 291.6732 14.93121341730243
SL-8 R/B                
1 20775U 90078B   22141.55889464  .00014112  00000+0  66438-3 0  9992
2 20775  82.9259   5.2659 0553458 170.7580 190.4338 14.39413746606656
SL-8 R/B                
1 21088U 91006B   22141.46670847  .00000018  00000+0  25014-5 0  9992
2 21088  82.9397 122.5337 0021739 326.3188 147.3876 13.77196530572973
OKEAN-3                 
1 21397U 91039A   22141.49947695  .00002413  00000+0  22556-3 0  9999
2 21397  82.5232 228.1914 0016778 340.3325  19.7246 14.93640769657154
COSMOS 2151             
1 21422U 91042A   22141.57757168  .00001697  00000+0  16213-3 0  9991
2 21422  82.4987 333.3713 0015206  47.9385 312.3125 14.92629201655676
SL-14 R/B               
1 21423U 91042B   22141.54074048  .00000558  00000+0  70697-4 0  9990
2 21423  82.4943  79.7429 0019019 113.5804 246.7409 14.79932706647641
ERS-1                   
1 21574U 91050A   22141.48905914  .00000309  00000+0  11677-3 0  9990
2 21574  98.6959 109.9914 0033011   0.4045 359.7162 14.37898492616147
ARIANE 40 R/B           
1 21610U 91050F   22141.46410118  .00000449  00000+0  15304-3 0  9992
2 21610  98.3817 211.4971 0002212 325.4672  49.5134 14.41055226618943
INTERCOSMOS 25          
1 21819U 91086A   22141.48705369  .00001478  00000+0  29712-3 0  9990
2 21819  82.5818  64.8381 1514458 213.3986 136.1998 12.05694200328981
SL-8 R/B                
1 21876U 92008B   22141.47163125  .00000100  00000+0  87275-4 0  9995
2 21876  82.9294 219.8700 0035770  52.9406 317.9462 13.75699503518537
SL-8 R/B                
1 21938U 92020B   22141.49113943  .00000040  00000+0  26291-4 0  9997
2 21938  82.9283 104.6156 0028353 209.8240 295.8218 13.75302825510306
COSMOS 2219             
1 22219U 92076A   22141.42475497 -.00000226  00000+0 -94546-4 0  9995
2 22219  71.0617  39.1743 0017575 169.0269 191.1241 14.13689876522152
SL-16 R/B               
1 22220U 92076B   22141.59143875  .00000314  00000+0  18142-3 0  9990
2 22220  71.0009 231.4075 0011225  44.1000  53.7550 14.16496188525240
COSMOS 2221             
1 22236U 92080A   22141.50892388  .00001605  00000+0  17000-3 0  9999
2 22236  82.5063 159.1829 0017591 143.1555 217.0876 14.88436541573823
SL-16 R/B               
1 22285U 92093B   22141.44903800  .00000191  00000+0  12278-3 0  9993
2 22285  71.0241  37.6571 0006440 266.1873  93.8514 14.15088500516747
COSMOS 2228             
1 22286U 92094A   22141.42254745  .00001987  00000+0  20972-3 0  9994
2 22286  82.5181 116.3391 0019215 265.4464  94.4559 14.88690657569000
SL-16 R/B               
1 22566U 93016B   22141.58771183 -.00000201  00000+0 -79277-4 0  9990
2 22566  71.0087 249.7800 0012853 274.7231  85.2424 14.15003257505790
COSMOS 2242             
1 22626U 93024A   22141.47171826  .00001777  00000+0  18820-3 0  9995
2 22626  82.5196 144.7209 0017074 265.5003  94.4264 14.88518381573391
SL-16 R/B               
1 22803U 93059B   22141.51538576  .00000300  00000+0  17353-3 0  9995
2 22803  70.9917  57.5835 0016871 172.5238 187.6140 14.16862151482886
ARIANE 40 R/B           
1 22830U 93061H   22141.40093718  .00000297  00000+0  12816-3 0  9994
2 22830  98.6648 204.2570 0011914  62.9107 297.3290 14.31549847495397
COSMOS 2278             
1 23087U 94023A   22141.58484729 -.00000213  00000+0 -87671-4 0  9995
2 23087  71.0538 197.9363 0009947 333.0670  26.9935 14.13866771448571
SL-16 R/B               
1 23088U 94023B   22141.30865628  .00000150  00000+0  10251-3 0  9994
2 23088  70.9979 105.8475 0005391 254.4364 105.6163 14.14706613449710
SL-16 R/B               
1 23343U 94074B   22141.41726226  .00000595  00000+0  91551-4 0  9992
2 23343  97.8949 194.9308 0007850  51.7828 318.8117 14.77020785482170
SL-16 R/B               
1 23405U 94077B   22141.40372015 -.00000204  00000+0 -80387-4 0  9990
2 23405  70.9846  32.3784 0001111 172.2894 187.8246 14.15256360419793
ERS-2                   
1 23560U 95021A   22141.56384414  .00011207  00000+0  43350-3 0  9996
2 23560  98.5063  43.2496 0001643 309.5960  50.5130 15.26423206449218
ARIANE 40+ R/B          
1 23561U 95021B   22141.40358543  .00000405  00000+0  14839-3 0  9992
2 23561  98.6249 198.6023 0006193 335.4189  35.0113 14.38139288419608
SL-16 R/B               
1 23705U 95058B   22141.54981408 -.00000204  00000+0 -80676-4 0  9991
2 23705  71.0224 213.7359 0010248  71.7773 288.4464 14.15172714371440
SL-16 R/B               
1 24298U 96051B   22141.54337732  .00000047  00000+0  51823-4 0  9993
2 24298  70.8195 227.5971 0013404  20.4122 339.7531 14.12409451325634
ORBVIEW 2 (SEASTAR)     
1 24883U 97037A   22141.56882505  .00000462  00000+0  18255-3 0  9995
2 24883  98.6764 264.8542 0002532 163.0109 197.1160 14.33731257309452
SL-16 R/B               
1 25400U 98043G   22141.54390686  .00000110  00000+0  65054-4 0  9991
2 25400  98.6718  77.9607 0011130  87.5803 272.6651 14.25512857241180
SL-16 R/B               
1 25407U 98045B   22141.52591890  .00000160  00000+0  10559-3 0  9992
2 25407  71.0122 219.9539 0008524 327.0460  33.0131 14.15862851230863
ISS (ZARYA)             
1 25544U 98067A   22141.64762985  .00011833  00000+0  21815-3 0  9992
2 25544  51.6435 108.0252 0005208 138.9273  30.7031 15.49577322341065
CZ-4B R/B               
1 25732U 99025C   22141.56639515  .00000127  00000+0  83882-4 0  9996
2 25732  98.8563 182.9934 0037358   6.0761 111.4389 14.17728888191442
OKEAN-O                 
1 25860U 99039A   22141.55925004  .00000821  00000+0  12416-3 0  9998
2 25860  98.1409 181.1879 0001812 104.9455 255.1955 14.76928430229288
SL-16 R/B               
1 25861U 99039B   22141.54709550  .00000771  00000+0  11211-3 0  9990
2 25861  98.1805 168.0992 0016733  62.1187 298.1716 14.78809660231521
DELTA 2 R/B             
1 25876U 99041E   22141.07434349  .00000543  00000+0  13105-3 0  9999
2 25876  51.7682  55.8134 0529151 233.8210 121.2670 14.05017039167370
HELIOS 1B               
1 25977U 99064A   22141.54621691  .00000908  00000+0  11950-3 0  9997
2 25977  98.3228 334.6718 0000710 153.8095 206.3154 14.82765364479293
TERRA                   
1 25994U 99068A   22141.56570876  .00000563  00000+0  13480-3 0  9997
2 25994  98.1376 214.1008 0001439  95.7391  11.5414 14.57162636192584
SL-16 R/B               
1 26070U 00006B   22141.39334189 -.00000011  00000+0  18746-4 0  9993
2 26070  70.9995 136.0834 0015186 140.6922 219.5306 14.15484478152084
